NORAD_CAT_ID,OBJECT_NAME,OBJECT_TYPE,EPOCH,MEAN_MOTION,ECCENTRICITY,INCLINATION,RA_OF_ASC_NODE,ARG_OF_PERICENTER,MEAN_ANOMALY,BSTAR,MEAN_MOTION_DOT,MEAN_MOTION_DDOT,TLE_LINE0,TLE_LINE1,TLE_LINE2,SEMIMAJOR_AXIS,PERIOD,APOGEE,PERIGEE,DECAYED
51801.0,STARLINK-3592,PAYLOAD,2022-07-25 06:00:00,15.08826865,0.0002403,53.2143,170.2642,51.1716,168.9729,0.00091595,0.00014314,0.0,0 STARLINK-3592,1 51801U 22017AK  22206.25001157  .00014314  00000-0  91595-3 0  9995,2 51801  53.2143 170.2642 0002403  51.1716 168.9729 15.08826865 24127,6917.920999999999,95.438,541.448,538.123,0.0
51801.0,STARLINK-3592,PAYLOAD,2022-07-25 14:00:01,15.08854179,0.0002304,53.2141,168.7666,53.1491,178.5794,-0.001932,-0.00030918,0.0,0 STARLINK-3592,1 51801U 22017AK  22206.58334491 -.00030918  00000-0 -19320-2 0  9996,2 51801  53.2141 168.7666 0002304  53.1491 178.5794 15.08854179  1308,6917.837,95.437,541.2959999999998,538.1080000000002,0.0
51801.0,STARLINK-3592,PAYLOAD,2022-07-25 22:00:00,15.0884664,0.0002285,53.2142,167.2698,58.0468,185.2763,0.00039703,6.037e-05,0.0,0 STARLINK-3592,1 51801U 22017AK  22206.91667824  .00006037  00000-0  39703-3 0  9993,2 51801  53.2142 167.2698 0002285  58.0468 185.2763 15.08846640  1309,6917.86,95.437,541.306,538.144,0.0
51801.0,STARLINK-3592,PAYLOAD,2022-07-26 14:00:01,15.08865655,0.0002303,53.2141,164.2773,54.043,212.4855,-0.0043311999999999,-0.00068615,0.0,0 STARLINK-3592,1 51801U 22017AK  22207.58334491 -.00068615  00000-0 -43312-2 0  9990,2 51801  53.2141 164.2773 0002303  54.0430 212.4855 15.08865655 24324,6917.802,95.436,541.26,538.0740000000002,0.0
51801.0,STARLINK-3592,PAYLOAD,2022-07-26 22:00:00,15.08832996,0.0002274,53.2143,162.7805,57.926,220.1953,0.00017435,2.487e-05,0.0,0 STARLINK-3592,1 51801U 22017AK  22207.91667824  .00002487  00000-0  17435-3 0  9997,2 51801  53.2143 162.7805 0002274  57.9260 220.1953 15.08832996  1305,6917.901999999999,95.438,541.34,538.194,0.0
51801.0,STARLINK-3592,PAYLOAD,2022-07-27 04:00:01,15.08826373,0.0002416,53.2142,161.6596,53.4579,143.4444,-0.00025864,-4.401e-05,0.0,0 STARLINK-3592,1 51801U 22017AK  22208.16668981 -.00004401  00000-0 -25864-3 0  9995,2 51801  53.2142 161.6596 0002416  53.4579 143.4444 15.08826373 24412,6917.922,95.438,541.4580000000002,538.116,0.0
51801.0,STARLINK-3592,PAYLOAD,2022-07-27 14:00:01,15.0884108,0.0002349,53.2146,159.7881,54.6423,246.6698,-0.001376,-0.00022122,0.0,0 STARLINK-3592,1 51801U 22017AK  22208.58334491 -.00022122  00000-0 -13760-2 0  9998,2 51801  53.2146 159.7881 0002349  54.6423 246.6698 15.08841080  1309,6917.877,95.437,541.367,538.117,0.0
51801.0,STARLINK-3592,PAYLOAD,2022-07-27 22:00:00,15.08848102,0.0002369,53.2148,158.2914,58.6846,254.2141,2.7982e-06,-2.44e-06,0.0,0 STARLINK-3592,1 51801U 22017AK  22208.91667824 -.00000244  00000-0  27982-5 0  9998,2 51801  53.2148 158.2914 0002369  58.6846 254.2141 15.08848102 24526,6917.856,95.437,541.359,538.082,0.0
51801.0,STARLINK-3592,PAYLOAD,2022-07-28 14:00:01,15.08863445,0.0002381999999999,53.2153,155.2989,55.5411,280.5546,-0.0039775999999999,-0.00063081,0.0,0 STARLINK-3592,1 51801U 22017AK  22209.58334491 -.00063081  00000-0 -39776-2 0  9993,2 51801  53.2153 155.2989 0002382  55.5411 280.5546 15.08863445  1309,6917.809,95.436,541.322,538.026,0.0
51801.0,STARLINK-3592,PAYLOAD,2022-07-28 22:00:00,15.08834628,0.0002355,53.2156,153.8024,58.0218,289.6666,-0.00044937,-7.432e-05,0.0,0 STARLINK-3592,1 51801U 22017AK  22209.91667824 -.00007432  00000-0 -44937-3 0  9993,2 51801  53.2156 153.8024 0002355  58.0218 289.6666 15.08834628 24678,6917.897,95.438,541.391,538.133,0.0
51801.0,STARLINK-3592,PAYLOAD,2022-07-29 14:00:01,15.08832648,0.000241,53.216,150.8098,56.9272,313.9282,-0.00030935,-5.208e-05,0.0,0 STARLINK-3592,1 51801U 22017AK  22210.58334491 -.00005208  00000-0 -30935-3 0  9991,2 51801  53.2160 150.8098 0002410  56.9272 313.9282 15.08832648  1300,6917.903,95.438,541.435,538.101,0.0
51801.0,STARLINK-3592,PAYLOAD,2022-07-29 22:00:00,15.08850861,0.0002433,53.2163,149.3136,59.225,323.2096,-0.00091201,-0.00014779,0.0,0 STARLINK-3592,1 51801U 22017AK  22210.91667824 -.00014779  00000-0 -91201-3 0  9993,2 51801  53.2163 149.3136 0002433  59.2250 323.2096 15.08850861  1300,6917.847,95.437,541.395,538.029,0.0
51801.0,STARLINK-3592,PAYLOAD,2022-07-30 06:00:00,15.08819793,0.0002573,53.2163,147.8188,55.3411,338.6998,0.0027340999999999,0.00043471,0.0,0 STARLINK-3592,1 51801U 22017AK  22211.25001157  .00043471  00000-0  27341-2 0  9994,2 51801  53.2163 147.8188 0002573  55.3411 338.6998 15.08819793 24889,6917.941999999999,95.439,541.587,538.0269999999998,0.0
51801.0,STARLINK-3592,PAYLOAD,2022-07-30 14:00:01,15.08840798,0.000242,53.2164,146.3208,59.0912,346.5415,-2.788e-05,-7.32e-06,0.0,0 STARLINK-3592,1 51801U 22017AK  22211.58334491 -.00000732  00000-0 -27880-4 0  9995,2 51801  53.2164 146.3208 0002420  59.0912 346.5415 15.08840798  1308,6917.878000000002,95.438,541.4169999999998,538.069,0.0
51801.0,STARLINK-3592,PAYLOAD,2022-07-30 22:00:00,15.08865115,0.0002400999999999,53.2165,144.8248,60.2714,356.9558,-0.0037071999999999,-0.0005884999999999,0.0,0 STARLINK-3592,1 51801U 22017AK  22211.91667824 -.00058850  00000-0 -37072-2 0  9997,2 51801  53.2165 144.8248 0002401  60.2714 356.9558 15.08865115 24981,6917.804,95.436,541.33,538.008,0.0
51801.0,STARLINK-3592,PAYLOAD,2022-07-31 14:00:01,15.08818073,0.0002335999999999,53.2163,141.8319,60.4479,19.957,0.00078461,0.00012214,0.0,0 STARLINK-3592,1 51801U 22017AK  22212.58334491  .00012214  00000-0  78461-3 0  9992,2 51801  53.2163 141.8319 0002336  60.4479  19.9570 15.08818073 25085,6917.946999999999,95.439,541.428,538.196,0.0
51801.0,STARLINK-3592,PAYLOAD,2022-07-31 22:00:00,15.08849489,0.000239,53.2163,140.336,61.9411,30.035,-0.0016132999999999,-0.0002588,0.0,0 STARLINK-3592,1 51801U 22017AK  22212.91667824 -.00025880  00000-0 -16133-2 0  9990,2 51801  53.2163 140.3360 0002390  61.9411  30.0350 15.08849489  1301,6917.851,95.437,541.37,538.063,0.0
51801.0,STARLINK-3592,PAYLOAD,2022-08-01 14:00:01,15.08826501,0.0002349,53.2157,137.3429,63.2169,51.9494,0.0013767,0.00021682,0.0,0 STARLINK-3592,1 51801U 22017AK  22213.58334491  .00021682  00000-0  13767-2 0  9999,2 51801  53.2157 137.3429 0002349  63.2169  51.9494 15.08826501  1306,6917.922,95.438,541.4119999999998,538.1619999999998,0.0
51801.0,STARLINK-3592,PAYLOAD,2022-08-01 22:00:00,15.08860979,0.0002435,53.2157,135.8471,64.383,62.3676,-0.0017345,-0.00027804,0.0,0 STARLINK-3592,1 51801U 22017AK  22213.91667824 -.00027804  00000-0 -17345-2 0  9995,2 51801  53.2157 135.8471 0002435  64.3830  62.3676 15.08860979 25287,6917.816,95.436,541.366,537.997,0.0
51801.0,STARLINK-3592,PAYLOAD,2022-08-02 14:00:01,15.08840296,0.0002376999999999,53.215,132.8537,65.1174,84.848,0.00068673,0.00010658,0.0,0 STARLINK-3592,1 51801U 22017AK  22214.58334491  .00010658  00000-0  68673-3 0  9998,2 51801  53.2150 132.8537 0002377  65.1174  84.8480 15.08840296 25388,6917.879,95.438,541.389,538.1,0.0
51801.0,STARLINK-3592,PAYLOAD,2022-08-03 04:00:00,15.0881128,0.0002484999999999,53.2149,130.2367,61.57899999999999,18.6907,0.0022951,0.000364,0.0,0 STARLINK-3592,1 51801U 22017AK  22215.16667824  .00036400  00000-0  22951-2 0  9993,2 51801  53.2149 130.2367 0002485  61.5790  18.6907 15.08811280 25473,6917.968000000003,95.439,541.552,538.114,0.0
51801.0,STARLINK-3592,PAYLOAD,2022-08-03 14:00:01,15.08817582,0.0002367,53.2146,128.3642,65.804,118.9477,0.0021831999999999,0.00034608,0.0,0 STARLINK-3592,1 51801U 22017AK  22215.58334491  .00034608  00000-0  21832-2 0  9995,2 51801  53.2146 128.3642 0002367  65.8040 118.9477 15.08817582  1301,6917.949000000001,95.439,541.451,538.1759999999998,0.0
51801.0,STARLINK-3592,PAYLOAD,2022-08-03 20:00:01,15.08851631,0.0002461999999999,53.2148,127.2421,67.4372,35.9943,-0.00069012,-0.00011259,0.0,0 STARLINK-3592,1 51801U 22017AK  22215.83334491 -.00011259  00000-0 -69012-3 0  9995,2 51801  53.2148 127.2421 0002462  67.4372  35.9943 15.08851631 25572,6917.845,95.437,541.413,538.007,0.0
51801.0,STARLINK-3592,PAYLOAD,2022-08-03 22:00:01,15.0885499,0.0002488,53.2148,126.8686,66.0313,130.3638,-0.0015154,-0.00024336,0.0,0 STARLINK-3592,1 51801U 22017AK  22215.91668981 -.00024336  00000-0 -15154-2 0  9995,2 51801  53.2148 126.8686 0002488  66.0313 130.3638 15.08854990  1305,6917.835,95.437,541.4209999999998,537.9780000000002,0.0
51801.0,STARLINK-3592,PAYLOAD,2022-08-04 14:00:01,15.08824233,0.0002379,53.2148,123.8746,66.3494,153.1968,0.00053404,8.218e-05,0.0,0 STARLINK-3592,1 51801U 22017AK  22216.58334491  .00008218  00000-0  53404-3 0  9995,2 51801  53.2148 123.8746 0002379  66.3494 153.1968 15.08824233  1307,6917.929,95.439,541.439,538.148,0.0
51801.0,STARLINK-3592,PAYLOAD,2022-08-04 22:00:00,15.08841503,0.0002475,53.2149,122.3792,65.6562,165.4685,-0.0013977,-0.00022466,0.0,0 STARLINK-3592,1 51801U 22017AK  22216.91667824 -.00022466  00000-0 -13977-2 0  9994,2 51801  53.2149 122.3792 0002475  65.6562 165.4685 15.08841503  1309,6917.876,95.437,541.453,538.029,0.0
51801.0,STARLINK-3592,PAYLOAD,2022-08-05 04:00:00,15.0880769,0.0002538,53.2151,121.2577,62.1752,87.6469,0.003139,0.00049981,0.0,0 STARLINK-3592,1 51801U 22017AK  22217.16667824  .00049981  00000-0  31390-2 0  9990,2 51801  53.2151 121.2577 0002538  62.1752  87.6469 15.08807690 25775,6917.979,95.44,541.6,538.0880000000002,0.0
51801.0,STARLINK-3592,PAYLOAD,2022-08-05 14:00:01,15.08817972,0.0002438,53.2152,119.3851,67.6237,186.7492,0.0028999,0.0004614,0.0,0 STARLINK-3592,1 51801U 22017AK  22217.58335648  .00046140  00000-0  28999-2 0  9997,2 51801  53.2152 119.3851 0002438  67.6237 186.7492 15.08817972  1300,6917.948,95.439,541.499,538.126,0.0
51801.0,STARLINK-3592,PAYLOAD,2022-08-05 20:00:01,15.08859408,0.0002514,53.2156,118.2633,68.2059,104.8507,-0.0010869,-0.00017555,0.0,0 STARLINK-3592,1 51801U 22017AK  22217.83335648 -.00017555  00000-0 -10869-2 0  9992,2 51801  53.2156 118.2633 0002514  68.2059 104.8507 15.08859408 25870,6917.821,95.436,541.425,537.947,0.0
